{
"type": "FeatureCollection",
"name": "Ridgecut_ToeDrain",
"features": [
{ "type": "Feature", "properties": { "OBJECTID": 332257.0, "ComID": 113904465.0, "Permanent_": "113904465", "FDate": "2010-05-27", "Resolution": 2.0, "GNIS_ID": "00226653", "GNIS_Name": "Knights Landing Ridge Cut", "LengthKM": 0.118, "ReachCode": "18020163001858", "FlowDir": 1.0, "WBAreaComI": 113925003.0, "WBArea_Per": "113925003", "FType": 558.0, "FCode": 55800.0, "Shape_Leng": 0.00105216950098, "Enabled": 0 }, "geometry": { "type": "LineString", "coordinates": [ [ -121.701776921534531, 38.770185006487566, 0.0 ], [ -121.701714788201286, 38.769134673155861, 0.0 ] ] } },
{ "type": "Feature", "properties": { "OBJECTID": 336465.0, "ComID": 113899159.0, "Permanent_": "113899159", "FDate": "2010-05-27", "Resolution": 2.0, "GNIS_ID": "00226653", "GNIS_Name": "Knights Landing Ridge Cut", "LengthKM": 0.031, "ReachCode": "18020163007095", "FlowDir": 1.0, "WBAreaComI": 113925003.0, "WBArea_Per": "113925003", "FType": 558.0, "FCode": 55800.0, "Shape_Leng": 0.00031585845581899997, "Enabled": 0 }, "geometry": { "type": "LineString", "coordinates": [ [ -121.689966521552833, 38.743825873195135, 0.0 ], [ -121.689723921553252, 38.743623606528786, 0.0 ] ] } },
{ "type": "Feature", "properties": { "OBJECTID": 338170.0, "ComID": 113899155.0, "Permanent_": "113899155", "FDate": "2010-05-27", "Resolution": 2.0, "GNIS_ID": "00226653", "GNIS_Name": "Knights Landing Ridge Cut", "LengthKM": 0.652, "ReachCode": "18020163004728", "FlowDir": 1.0, "WBAreaComI": 113925003.0, "WBArea_Per": "113925003", "FType": 558.0, "FCode": 55800.0, "Shape_Leng": 0.0062590346973700004, "Enabled": 0 }, "geometry": { "type": "LineString", "coordinates": [ [ -121.69337738821423, 38.748926406520582, 0.0 ], [ -121.693165788214571, 38.747952806522051, 0.0 ], [ -121.692741588215199, 38.746990206523549, 0.0 ], [ -121.691750388216747, 38.745908073191913, 0.0 ], [ -121.690190188219162, 38.744134406528019, 0.0 ], [ -121.689966521552833, 38.743825873195135, 0.0 ] ] } },
{ "type": "Feature", "properties": { "OBJECTID": 368561.0, "ComID": 113899239.0, "Permanent_": "113899239", "FDate": "2010-05-27", "Resolution": 2.0, "GNIS_ID": "00226653", "GNIS_Name": "Knights Landing Ridge Cut", "LengthKM": 1.525, "ReachCode": "18020163007095", "FlowDir": 1.0, "WBAreaComI": 113925003.0, "WBArea_Per": "113925003", "FType": 558.0, "FCode": 55800.0, "Shape_Leng": 0.015142677554000001, "Enabled": 0 }, "geometry": { "type": "LineString", "coordinates": [ [ -121.689723921553252, 38.743623606528786, 0.0 ], [ -121.689507521553594, 38.743381673195813, 0.0 ], [ -121.685050121560494, 38.738641806536521, 0.0 ], [ -121.681210921566446, 38.73448747320964, 0.0 ], [ -121.680343788234438, 38.733612873210973, 0.0 ], [ -121.679343788235997, 38.732600073212552, 0.0 ] ] } },
{ "type": "Feature", "properties": { "OBJECTID": 374348.0, "ComID": 113899163.0, "Permanent_": "113899163", "FDate": "2010-05-27", "Resolution": 2.0, "GNIS_ID": "00226653", "GNIS_Name": "Knights Landing Ridge Cut", "LengthKM": 1.729, "ReachCode": "18020163007160", "FlowDir": 1.0, "WBAreaComI": 113925003.0, "WBArea_Per": "113925003", "FType": 558.0, "FCode": 55800.0, "Shape_Leng": 0.0180574531097, "Enabled": 0 }, "geometry": { "type": "LineString", "coordinates": [ [ -121.679343788235997, 38.732600073212552, 0.0 ], [ -121.679134921569641, 38.732388473212893, 0.0 ], [ -121.67682312157325, 38.73064607321561, 0.0 ], [ -121.675227988242398, 38.729643406550508, 0.0 ], [ -121.671917788247526, 38.728168873219431, 0.0 ], [ -121.668787188252395, 38.726629873221839, 0.0 ], [ -121.666993988255172, 38.725332206557198, 0.0 ], [ -121.666125721589879, 38.72453727322511, 0.0 ], [ -121.665184988257977, 38.72261080656142, 0.0 ], [ -121.664968921591651, 38.722355606561791, 0.0 ] ] } },
{ "type": "Feature", "properties": { "OBJECTID": 377665.0, "ComID": 113899151.0, "Permanent_": "113899151", "FDate": "2010-05-27", "Resolution": 2.0, "GNIS_ID": "00226653", "GNIS_Name": "Knights Landing Ridge Cut", "LengthKM": 0.11, "ReachCode": "18020163004206", "FlowDir": 1.0, "WBAreaComI": 113925003.0, "WBArea_Per": "113925003", "FType": 558.0, "FCode": 55800.0, "Shape_Leng": 0.000978565842498, "Enabled": 0 }, "geometry": { "type": "LineString", "coordinates": [ [ -121.693333921547605, 38.749904006519046, 0.0 ], [ -121.69337738821423, 38.748926406520582, 0.0 ] ] } },
{ "type": "Feature", "properties": { "OBJECTID": 401166.0, "ComID": 113904477.0, "Permanent_": "113904477", "FDate": "2010-05-27", "Resolution": 2.0, "GNIS_ID": "00226653", "GNIS_Name": "Knights Landing Ridge Cut", "LengthKM": 2.795, "ReachCode": "18020163002089", "FlowDir": 1.0, "WBAreaComI": 113925003.0, "WBArea_Per": "113925003", "FType": 558.0, "FCode": 55800.0, "Shape_Leng": 0.028029391690099999, "Enabled": 0 }, "geometry": { "type": "LineString", "coordinates": [ [ -121.721052721504577, 38.789642406457347, 0.0 ], [ -121.719672321506721, 38.788639273125568, 0.0 ], [ -121.717765321509717, 38.787070206461351, 0.0 ], [ -121.716437788178439, 38.785967606463089, 0.0 ], [ -121.712754988184145, 38.783133673134103, 0.0 ], [ -121.711850521518897, 38.782417006468563, 0.0 ], [ -121.70722192152607, 38.778809673140813, 0.0 ], [ -121.705268988195769, 38.777038073143615, 0.0 ], [ -121.704004721531078, 38.775633006479097, 0.0 ], [ -121.703380788198672, 38.774470606480918, 0.0 ], [ -121.7023223215337, 38.772383473150796, 0.0 ], [ -121.702026988200828, 38.771280873152534, 0.0 ], [ -121.701797121534469, 38.770526673153711, 0.0 ], [ -121.701776921534531, 38.770185006487566, 0.0 ] ] } },
{ "type": "Feature", "properties": { "OBJECTID": 424395.0, "ComID": 113904467.0, "Permanent_": "113904467", "FDate": "2010-05-27", "Resolution": 2.0, "GNIS_ID": "00226653", "GNIS_Name": "Knights Landing Ridge Cut", "LengthKM": 2.397, "ReachCode": "18020163005104", "FlowDir": 1.0, "WBAreaComI": 113925003.0, "WBArea_Per": "113925003", "FType": 558.0, "FCode": 55800.0, "Shape_Leng": 0.022629068391300002, "Enabled": 0 }, "geometry": { "type": "LineString", "coordinates": [ [ -121.701714788201286, 38.769134673155861, 0.0 ], [ -121.701549388201556, 38.768501806490178, 0.0 ], [ -121.701418521535061, 38.76734047315864, 0.0 ], [ -121.701285521535283, 38.766298073160272, 0.0 ], [ -121.701146388202176, 38.765582806494706, 0.0 ], [ -121.700404588203298, 38.764593006496227, 0.0 ], [ -121.699211388205185, 38.76336040649818, 0.0 ], [ -121.697449721541261, 38.762061873166829, 0.0 ], [ -121.696363921542911, 38.761187273168218, 0.0 ], [ -121.695316788211244, 38.760283406502936, 0.0 ], [ -121.694534521545791, 38.759441806504242, 0.0 ], [ -121.693643588213831, 38.758301806505983, 0.0 ], [ -121.693133588214607, 38.757106406507887, 0.0 ], [ -121.693043588214721, 38.75579680650992, 0.0 ], [ -121.693233921547801, 38.751605473183076, 0.0 ], [ -121.693333921547605, 38.749904006519046, 0.0 ] ] } },
{ "type": "Feature", "properties": { "OBJECTID": 426030.0, "ComID": 113904485.0, "Permanent_": "113904485", "FDate": "2010-08-16", "Resolution": 2.0, "GNIS_ID": "00226653", "GNIS_Name": "Knights Landing Ridge Cut", "LengthKM": 0.988, "ReachCode": "18020163007604", "FlowDir": 1.0, "WBAreaComI": 113925003.0, "WBArea_Per": "113925003", "FType": 558.0, "FCode": 55800.0, "Shape_Leng": 0.0103412648514, "Enabled": 0 }, "geometry": { "type": "LineString", "coordinates": [ [ -121.729480788158185, 38.795577673114792, 0.0 ], [ -121.728225921493447, 38.79488020644925, 0.0 ], [ -121.726961721495456, 38.794227006450228, 0.0 ], [ -121.726225121496554, 38.793736606450977, 0.0 ], [ -121.724458321499299, 38.792337606453202, 0.0 ], [ -121.722775788168576, 38.791029006455233, 0.0 ], [ -121.721490521503938, 38.789960473123529, 0.0 ], [ -121.721052721504577, 38.789642406457347, 0.0 ] ] } },
{ "type": "Feature", "properties": { "OBJECTID": 0.0, "ComID": 113899165.0, "Permanent_": null, "FDate": "2010-05-27", "Resolution": 2.0, "GNIS_ID": null, "GNIS_Name": null, "LengthKM": 0.095, "ReachCode": "18020163003271", "FlowDir": 1.0, "WBAreaComI": 0.0, "WBArea_Per": null, "FType": 558.0, "FCode": 55800.0, "Shape_Leng": 0.0, "Enabled": 0 }, "geometry": { "type": "LineString", "coordinates": [ [ -121.664968921591651, 38.722355606561791, 0.0 ], [ -121.663898988259973, 38.722159206562083, 0.0 ] ] } },
{ "type": "Feature", "properties": { "OBJECTID": 0.0, "ComID": 113898589.0, "Permanent_": null, "FDate": "2010-05-27", "Resolution": 2.0, "GNIS_ID": null, "GNIS_Name": null, "LengthKM": 2.698, "ReachCode": "18020163003271", "FlowDir": 1.0, "WBAreaComI": 0.0, "WBArea_Per": null, "FType": 336.0, "FCode": 33600.0, "Shape_Leng": 0.0, "Enabled": 0 }, "geometry": { "type": "LineString", "coordinates": [ [ -121.663898988259973, 38.722159206562075, 0.0 ], [ -121.663693594197596, 38.722038305335289, 0.0 ], [ -121.663524972042808, 38.721941008393905, 0.0 ], [ -121.663375140213688, 38.721815315290073, 0.0 ], [ -121.662975576601639, 38.721372047464932, 0.0 ], [ -121.661576323211492, 38.719701378805908, 0.0 ], [ -121.660507320454329, 38.718601925080712, 0.0 ], [ -121.659863845083336, 38.71818446232615, 0.0 ], [ -121.659610844355186, 38.718043276268503, 0.0 ], [ -121.659395247167424, 38.717854833974577, 0.0 ], [ -121.659154597277464, 38.717704251644086, 0.0 ], [ -121.658715629959616, 38.71741787660644, 0.0 ], [ -121.658338053312136, 38.717103593730414, 0.0 ], [ -121.657546577285004, 38.716465070301041, 0.0 ], [ -121.656898391816668, 38.715976010261457, 0.0 ], [ -121.656352947475909, 38.715526275266527, 0.0 ], [ -121.656065327704709, 38.715284545932192, 0.0 ], [ -121.655782901851452, 38.715090560254687, 0.0 ], [ -121.655489468692295, 38.714834457272495, 0.0 ], [ -121.655105477348485, 38.714539164079405, 0.0 ], [ -121.654859924400469, 38.714326526513489, 0.0 ], [ -121.65455334449446, 38.714122723025696, 0.0 ], [ -121.654174104616033, 38.713899008434254, 0.0 ], [ -121.653776791213772, 38.713665547566691, 0.0 ], [ -121.653427891268365, 38.713446948406897, 0.0 ], [ -121.653060738804299, 38.713228137914946, 0.0 ], [ -121.652790051461452, 38.713058122610427, 0.0 ], [ -121.652519007343244, 38.712907176427109, 0.0 ], [ -121.65223579468838, 38.71275608933329, 0.0 ], [ -121.651947125279889, 38.712571559385431, 0.0 ], [ -121.651405045470042, 38.712269662603511, 0.0 ], [ -121.650977505557222, 38.712026306658323, 0.0 ], [ -121.650652692334006, 38.711822282594632, 0.0 ], [ -121.650121986141215, 38.711563427348132, 0.0 ], [ -121.649742415010877, 38.711358768489895, 0.0 ], [ -121.649277749991896, 38.711148356817937, 0.0 ], [ -121.64887348577841, 38.710962483709693, 0.0 ], [ -121.648457952145421, 38.710728794287043, 0.0 ], [ -121.64804724860295, 38.710561917749786, 0.0 ], [ -121.647413841527126, 38.710263714859252, 0.0 ], [ -121.647063449979441, 38.710126143440249, 0.0 ], [ -121.646544669035919, 38.709881715438463, 0.0 ], [ -121.645844973866858, 38.709549357406118, 0.0 ], [ -121.645162098943615, 38.709293485558227, 0.0 ], [ -121.644528625324313, 38.709000034810259, 0.0 ], [ -121.64371397390758, 38.708632951960979, 0.0 ], [ -121.643050089964419, 38.708339140445041, 0.0 ], [ -121.642555312999676, 38.708114047295446, 0.0 ], [ -121.642096594647981, 38.707913213204435, 0.0 ], [ -121.640553705063112, 38.707118022967833, 0.0 ], [ -121.640092018188241, 38.707074505828118, 0.0 ], [ -121.639671747651263, 38.707093458800152, 0.0 ], [ -121.639372165158221, 38.706996219105697, 0.0 ] ] } },
{ "type": "Feature", "properties": { "OBJECTID": 0.0, "ComID": 113899173.0, "Permanent_": null, "FDate": "2010-05-27", "Resolution": 2.0, "GNIS_ID": "00236595", "GNIS_Name": "Tule Canal", "LengthKM": 2.1, "ReachCode": "18020163001422", "FlowDir": 1.0, "WBAreaComI": 0.0, "WBArea_Per": null, "FType": 558.0, "FCode": 55800.0, "Shape_Leng": 0.0, "Enabled": 0 }, "geometry": { "type": "LineString", "coordinates": [ [ -121.639372165158221, 38.706996219105697, 0.0 ], [ -121.641436121628175, 38.701874806593636, 0.0 ], [ -121.642287121626822, 38.699968806596559, 0.0 ], [ -121.644646321623199, 38.6943884732719, 0.0 ], [ -121.645231321622305, 38.693078206607282, 0.0 ], [ -121.645237521622278, 38.692918606607549, 0.0 ], [ -121.645269988288874, 38.692884073274243, 0.0 ] ] } },
{ "type": "Feature", "properties": { "OBJECTID": 0.0, "ComID": 113873933.0, "Permanent_": null, "FDate": "2010-05-27", "Resolution": 2.0, "GNIS_ID": "00236595", "GNIS_Name": "Tule Canal", "LengthKM": 1.013, "ReachCode": "18020163001904", "FlowDir": 1.0, "WBAreaComI": 0.0, "WBArea_Per": null, "FType": 558.0, "FCode": 55800.0, "Shape_Leng": 0.0, "Enabled": 0 }, "geometry": { "type": "LineString", "coordinates": [ [ -121.615945121667778, 38.632872073367366, 0.0 ], [ -121.615405188335274, 38.63197400670208, 0.0 ], [ -121.614856788336112, 38.631095806703456, 0.0 ], [ -121.614270921670368, 38.630192273371506, 0.0 ], [ -121.61325632167194, 38.628646673373908, 0.0 ], [ -121.6126817216728, 38.627730673375368, 0.0 ], [ -121.610978188342131, 38.625592606712019, 0.0 ], [ -121.610517521676172, 38.625047606712826, 0.0 ], [ -121.610430988342955, 38.624906473379724, 0.0 ] ] } },
{ "type": "Feature", "properties": { "OBJECTID": 0.0, "ComID": 113917293.0, "Permanent_": null, "FDate": "2010-05-27", "Resolution": 2.0, "GNIS_ID": "00236595", "GNIS_Name": "Tule Canal", "LengthKM": 2.187, "ReachCode": "18020163003064", "FlowDir": 1.0, "WBAreaComI": 0.0, "WBArea_Per": null, "FType": 558.0, "FCode": 55800.0, "Shape_Leng": 0.0, "Enabled": 0 }, "geometry": { "type": "LineString", "coordinates": [ [ -121.608525988345946, 38.622316606717106, 0.0 ], [ -121.606331588349349, 38.619337673388372, 0.0 ], [ -121.603967121686367, 38.616380873392984, 0.0 ], [ -121.600558721691641, 38.611995673399747, 0.0 ], [ -121.597286721696719, 38.607745273406351, 0.0 ], [ -121.595593988366033, 38.605570873409761, 0.0 ], [ -121.595563521699376, 38.60555827340977, 0.0 ] ] } },
{ "type": "Feature", "properties": { "OBJECTID": 0.0, "ComID": 113899181.0, "Permanent_": null, "FDate": "2010-05-27", "Resolution": 2.0, "GNIS_ID": "00236595", "GNIS_Name": "Tule Canal", "LengthKM": 1.754, "ReachCode": "18020163003428", "FlowDir": 1.0, "WBAreaComI": 0.0, "WBArea_Per": null, "FType": 558.0, "FCode": 55800.0, "Shape_Leng": 0.0, "Enabled": 0 }, "geometry": { "type": "LineString", "coordinates": [ [ -121.645583321621757, 38.691800006609242, 0.0 ], [ -121.645730588288188, 38.691073406610371, 0.0 ], [ -121.645728321621505, 38.68985100661223, 0.0 ], [ -121.645467521621924, 38.687473073282604, 0.0 ], [ -121.644851388289567, 38.681668606624953, 0.0 ], [ -121.644674388289843, 38.680249673293815, 0.0 ], [ -121.644325788290359, 38.677481673298132, 0.0 ], [ -121.64405752162412, 38.676859806632422, 0.0 ], [ -121.64386538829109, 38.676261206633342, 0.0 ] ] } },
{ "type": "Feature", "properties": { "OBJECTID": 0.0, "ComID": 113873929.0, "Permanent_": null, "FDate": "2010-05-27", "Resolution": 2.0, "GNIS_ID": "00236595", "GNIS_Name": "Tule Canal", "LengthKM": 1.058, "ReachCode": "18020163004800", "FlowDir": 1.0, "WBAreaComI": 0.0, "WBArea_Per": null, "FType": 558.0, "FCode": 55800.0, "Shape_Leng": 0.0, "Enabled": 0 }, "geometry": { "type": "LineString", "coordinates": [ [ -121.62115472165965, 38.641415606687417, 0.0 ], [ -121.620391188327517, 38.640212606689317, 0.0 ], [ -121.619040321662965, 38.638258473359031, 0.0 ], [ -121.617758788331628, 38.636005606695846, 0.0 ], [ -121.616230121667286, 38.63337000669992, 0.0 ], [ -121.615996521667682, 38.632927606700605, 0.0 ], [ -121.61595738833438, 38.63289220670066, 0.0 ], [ -121.615945121667778, 38.632872073367366, 0.0 ] ] } },
{ "type": "Feature", "properties": { "OBJECTID": 0.0, "ComID": 113899187.0, "Permanent_": null, "FDate": "2010-05-27", "Resolution": 2.0, "GNIS_ID": "00236595", "GNIS_Name": "Tule Canal", "LengthKM": 1.9, "ReachCode": "18020163004800", "FlowDir": 1.0, "WBAreaComI": 0.0, "WBArea_Per": null, "FType": 558.0, "FCode": 55800.0, "Shape_Leng": 0.0, "Enabled": 0 }, "geometry": { "type": "LineString", "coordinates": [ [ -121.637746121633938, 38.663480406653207, 0.0 ], [ -121.636709321635522, 38.662445473321441, 0.0 ], [ -121.636242988302911, 38.661871273322333, 0.0 ], [ -121.634594188305471, 38.660065873325152, 0.0 ], [ -121.632849921641537, 38.658269406661304, 0.0 ], [ -121.629961988312687, 38.655217073332665, 0.0 ], [ -121.629516388313334, 38.654563273333679, 0.0 ], [ -121.627433388316604, 38.651355806672029, 0.0 ], [ -121.626303988318341, 38.649526473341496, 0.0 ], [ -121.626070588318726, 38.64917627334205, 0.0 ] ] } },
{ "type": "Feature", "properties": { "OBJECTID": 0.0, "ComID": 113899177.0, "Permanent_": null, "FDate": "2010-05-27", "Resolution": 2.0, "GNIS_ID": "00236595", "GNIS_Name": "Tule Canal", "LengthKM": 0.124, "ReachCode": "18020163005395", "FlowDir": 1.0, "WBAreaComI": 0.0, "WBArea_Per": null, "FType": 558.0, "FCode": 55800.0, "Shape_Leng": 0.0, "Enabled": 0 }, "geometry": { "type": "LineString", "coordinates": [ [ -121.645269988288874, 38.692884073274229, 0.0 ], [ -121.645562121621765, 38.691904606609057, 0.0 ], [ -121.645583321621757, 38.691800006609242, 0.0 ] ] } },
{ "type": "Feature", "properties": { "OBJECTID": 0.0, "ComID": 113873999.0, "Permanent_": null, "FDate": "2010-05-27", "Resolution": 2.0, "GNIS_ID": "00236595", "GNIS_Name": "Tule Canal", "LengthKM": 0.968, "ReachCode": "18020163004800", "FlowDir": 1.0, "WBAreaComI": 0.0, "WBArea_Per": null, "FType": 558.0, "FCode": 55800.0, "Shape_Leng": 0.0, "Enabled": 0 }, "geometry": { "type": "LineString", "coordinates": [ [ -121.626070588318726, 38.64917627334205, 0.0 ], [ -121.624993788320353, 38.647320073344929, 0.0 ], [ -121.622320521657855, 38.643232473351304, 0.0 ], [ -121.621157721659642, 38.641420473354117, 0.0 ], [ -121.62115472165965, 38.641415606687417, 0.0 ] ] } },
{ "type": "Feature", "properties": { "OBJECTID": 0.0, "ComID": 113917289.0, "Permanent_": null, "FDate": "2010-05-27", "Resolution": 2.0, "GNIS_ID": "00236595", "GNIS_Name": "Tule Canal", "LengthKM": 0.334, "ReachCode": "18020163001904", "FlowDir": 1.0, "WBAreaComI": 0.0, "WBArea_Per": null, "FType": 558.0, "FCode": 55800.0, "Shape_Leng": 0.0, "Enabled": 0 }, "geometry": { "type": "LineString", "coordinates": [ [ -121.610430988342955, 38.624906473379724, 0.0 ], [ -121.609171921678239, 38.623219806715667, 0.0 ], [ -121.6085707216792, 38.622401806716937, 0.0 ], [ -121.608525988345946, 38.622316606717106, 0.0 ] ] } },
{ "type": "Feature", "properties": { "OBJECTID": 0.0, "ComID": 113899183.0, "Permanent_": null, "FDate": "2010-05-27", "Resolution": 2.0, "GNIS_ID": "00236595", "GNIS_Name": "Tule Canal", "LengthKM": 1.552, "ReachCode": "18020163003428", "FlowDir": 1.0, "WBAreaComI": 0.0, "WBArea_Per": null, "FType": 558.0, "FCode": 55800.0, "Shape_Leng": 0.0, "Enabled": 0 }, "geometry": { "type": "LineString", "coordinates": [ [ -121.64386538829109, 38.676261206633342, 0.0 ], [ -121.643407988291813, 38.674517406636085, 0.0 ], [ -121.643016988292402, 38.672976273305096, 0.0 ], [ -121.642072388293855, 38.669412873310648, 0.0 ], [ -121.641690788294454, 38.668390806645561, 0.0 ], [ -121.640701388296009, 38.666872473314584, 0.0 ], [ -121.639782988297441, 38.665634473316516, 0.0 ], [ -121.638281788299764, 38.663920673319183, 0.0 ], [ -121.637833321633764, 38.663576206653033, 0.0 ], [ -121.637746121633938, 38.663480406653207, 0.0 ] ] } },
{ "type": "Feature", "properties": { "OBJECTID": 0.0, "ComID": 113917309.0, "Permanent_": null, "FDate": "2010-05-27", "Resolution": 2.0, "GNIS_ID": "00236595", "GNIS_Name": "Tule Canal", "LengthKM": 0.059, "ReachCode": "18020163006069", "FlowDir": 1.0, "WBAreaComI": 0.0, "WBArea_Per": null, "FType": 558.0, "FCode": 55800.0, "Shape_Leng": 0.0, "Enabled": 0 }, "geometry": { "type": "LineString", "coordinates": [ [ -121.58710938837919, 38.594686206759945, 0.0 ], [ -121.58742898837869, 38.594224273427358, 0.0 ] ] } },
{ "type": "Feature", "properties": { "OBJECTID": 0.0, "ComID": 113916869.0, "Permanent_": null, "FDate": "2010-05-27", "Resolution": 2.0, "GNIS_ID": "00236595", "GNIS_Name": "Tule Canal", "LengthKM": 0.644, "ReachCode": "18020163006069", "FlowDir": 1.0, "WBAreaComI": 0.0, "WBArea_Per": null, "FType": 336.0, "FCode": 33600.0, "Shape_Leng": 0.0, "Enabled": 0 }, "geometry": { "type": "LineString", "coordinates": [ [ -121.58742898837869, 38.594224273427358, 0.0 ], [ -121.587267921712282, 38.593894806761227, 0.0 ], [ -121.587162921712434, 38.593642073428271, 0.0 ], [ -121.586987788379361, 38.593274206762146, 0.0 ], [ -121.586854721712882, 38.592829273429516, 0.0 ], [ -121.586770588379693, 38.592521673429985, 0.0 ], [ -121.586686521713148, 38.592065806764026, 0.0 ], [ -121.586630388379945, 38.591796673431134, 0.0 ], [ -121.586581321713311, 38.591203473432017, 0.0 ], [ -121.586539188380073, 38.590885006765859, 0.0 ], [ -121.586482988380169, 38.590527873433075, 0.0 ], [ -121.58630792171374, 38.589874273434134, 0.0 ], [ -121.586160721714009, 38.589198673435135, 0.0 ], [ -121.586097721714054, 38.588869206769004, 0.0 ], [ -121.586013588380865, 38.588600073436112, 0.0 ] ] } },
{ "type": "Feature", "properties": { "OBJECTID": 0.0, "ComID": 113917297.0, "Permanent_": null, "FDate": "2010-05-27", "Resolution": 2.0, "GNIS_ID": "00236595", "GNIS_Name": "Tule Canal", "LengthKM": 0.929, "ReachCode": "18020163001634", "FlowDir": 1.0, "WBAreaComI": 0.0, "WBArea_Per": null, "FType": 558.0, "FCode": 55800.0, "Shape_Leng": 0.0, "Enabled": 0 }, "geometry": { "type": "LineString", "coordinates": [ [ -121.595563521699376, 38.60555827340977, 0.0 ], [ -121.59170672170535, 38.600489873417644, 0.0 ], [ -121.590623588373717, 38.599097273419773, 0.0 ], [ -121.590072721707884, 38.598485473420737, 0.0 ], [ -121.59004272170796, 38.598448806754106, 0.0 ] ] } },
{ "type": "Feature", "properties": { "OBJECTID": 0.0, "ComID": 113917301.0, "Permanent_": null, "FDate": "2010-05-27", "Resolution": 2.0, "GNIS_ID": "00236595", "GNIS_Name": "Tule Canal", "LengthKM": 0.494, "ReachCode": "18020163006746", "FlowDir": 1.0, "WBAreaComI": 0.0, "WBArea_Per": null, "FType": 558.0, "FCode": 55800.0, "Shape_Leng": 0.0, "Enabled": 0 }, "geometry": { "type": "LineString", "coordinates": [ [ -121.59004272170796, 38.598448806754106, 0.0 ], [ -121.589557321708696, 38.598031473421429, 0.0 ], [ -121.587949588377853, 38.59587020675815, 0.0 ], [ -121.587182588379051, 38.59488067342636, 0.0 ], [ -121.587109121712501, 38.594698273426616, 0.0 ], [ -121.58710938837919, 38.594686206759945, 0.0 ] ] } },
{ "type": "Feature", "properties": { "OBJECTID": 0.0, "ComID": 113916923.0, "Permanent_": null, "FDate": "2010-05-27", "Resolution": 2.0, "GNIS_ID": "00236595", "GNIS_Name": "Tule Canal", "LengthKM": 0.479, "ReachCode": "18020163006853", "FlowDir": 1.0, "WBAreaComI": 0.0, "WBArea_Per": null, "FType": 336.0, "FCode": 33600.0, "Shape_Leng": 0.0, "Enabled": 0 }, "geometry": { "type": "LineString", "coordinates": [ [ -121.583519721718062, 38.578862006784561, 0.0 ], [ -121.582588188386183, 38.575000673457168, 0.0 ], [ -121.58255312171957, 38.574901806790706, 0.0 ], [ -121.582532121719623, 38.574654673457758, 0.0 ] ] } },
{ "type": "Feature", "properties": { "OBJECTID": 0.0, "ComID": 113916903.0, "Permanent_": null, "FDate": "2010-05-27", "Resolution": 2.0, "GNIS_ID": "00236595", "GNIS_Name": "Tule Canal", "LengthKM": 1.113, "ReachCode": "18020163004220", "FlowDir": 1.0, "WBAreaComI": 0.0, "WBArea_Per": null, "FType": 336.0, "FCode": 33600.0, "Shape_Leng": 0.0, "Enabled": 0 }, "geometry": { "type": "LineString", "coordinates": [ [ -121.586013588380865, 38.588600073436112, 0.0 ], [ -121.58578952171456, 38.587732273437439, 0.0 ], [ -121.585383121715211, 38.586128473439942, 0.0 ], [ -121.58492078838259, 38.584370873442651, 0.0 ], [ -121.584626588383003, 38.583233873444442, 0.0 ], [ -121.583519721718062, 38.578862006784561, 0.0 ] ] } },
{ "type": "Feature", "properties": { "OBJECTID": 0.0, "ComID": 0.0, "Permanent_": null, "FDate": "1899-12-30", "Resolution": 0.0, "GNIS_ID": null, "GNIS_Name": null, "LengthKM": 0.0, "ReachCode": null, "FlowDir": 0.0, "WBAreaComI": 0.0, "WBArea_Per": null, "FType": 0.0, "FCode": 0.0, "Shape_Leng": 0.0, "Enabled": 0 }, "geometry": { "type": "LineString", "coordinates": [ [ -121.774040096329941, 38.812050602311068, 0.0 ], [ -121.766042988101248, 38.807284273096748, 0.0 ], [ -121.751078321457811, 38.801669406438805, 0.0 ], [ -121.746425321465011, 38.80007207310792, 0.0 ], [ -121.742032988138519, 38.796849606446273, 0.0 ], [ -121.741535388139312, 38.796575406446692, 0.0 ], [ -121.735742721481643, 38.795230673115441, 0.0 ], [ -121.732145121487235, 38.794890606449307, 0.0 ], [ -121.731765121487811, 38.794959606449218, 0.0 ], [ -121.729689788157714, 38.79576227311464, 0.0 ], [ -121.729480788158185, 38.795577673114806, 0.0 ] ] } },
{ "type": "Feature", "properties": { "OBJECTID": 0.0, "ComID": 0.0, "Permanent_": null, "FDate": "1899-12-30", "Resolution": 0.0, "GNIS_ID": null, "GNIS_Name": null, "LengthKM": 0.0, "ReachCode": null, "FlowDir": 0.0, "WBAreaComI": 0.0, "WBArea_Per": null, "FType": 0.0, "FCode": 0.0, "Shape_Leng": 0.0, "Enabled": 0 }, "geometry": { "type": "LineString", "coordinates": [ [ -121.582532121719609, 38.574654673457758, 0.0 ], [ -121.582930010883956, 38.573706440319462, 0.0 ], [ -121.582919590289023, 38.571918111260388, 0.0 ], [ -121.582830990628622, 38.564060861070246, 0.0 ], [ -121.582860162896694, 38.559483406824299, 0.0 ], [ -121.582791699170684, 38.555238565859995, 0.0 ], [ -121.582821756145634, 38.551388320878523, 0.0 ], [ -121.582979849679575, 38.551068357234321, 0.0 ], [ -121.58604009377467, 38.545967240000302, 0.0 ], [ -121.586889718231674, 38.544439637944677, 0.0 ], [ -121.587599827986253, 38.542903192976112, 0.0 ], [ -121.588089141676249, 38.541478525819919, 0.0 ], [ -121.588483922985574, 38.539919196404, 0.0 ], [ -121.588733752548208, 38.538319969189963, 0.0 ], [ -121.588881236117629, 38.536986547294489, 0.0 ], [ -121.588897324663577, 38.529948326057209, 0.0 ], [ -121.588834573712873, 38.515756269408051, 0.0 ], [ -121.588827362359893, 38.510385002142471, 0.0 ], [ -121.58882578414854, 38.507356926693234, 0.0 ], [ -121.58879800701925, 38.503339050222827, 0.0 ], [ -121.588791769077886, 38.500549345157289, 0.0 ], [ -121.588744913416591, 38.497508797766841, 0.0 ], [ -121.588740298985286, 38.494635659102116, 0.0 ], [ -121.588749451302476, 38.491834214104358, 0.0 ], [ -121.588760304132421, 38.486612719306876, 0.0 ], [ -121.588724260163275, 38.481462184210223, 0.0 ], [ -121.588738631517515, 38.476836800298663, 0.0 ], [ -121.588691588376719, 38.475933473610944, 0.0 ], [ -121.588699775289015, 38.474940806416015, 0.0 ], [ -121.58881311034844, 38.474572604062104, 0.0 ], [ -121.589143815541661, 38.473944746127529, 0.0 ], [ -121.589239894599515, 38.47368362935908, 0.0 ], [ -121.58912179586153, 38.472740404279683, 0.0 ], [ -121.58901189098718, 38.472154924259534, 0.0 ], [ -121.589074333070499, 38.471285403069977, 0.0 ], [ -121.589364879906981, 38.470382864500507, 0.0 ], [ -121.591405251159571, 38.466056049929598, 0.0 ], [ -121.594394927231036, 38.459678157013741, 0.0 ], [ -121.596975432099867, 38.454046338142483, 0.0 ], [ -121.600010943387076, 38.447597301765768, 0.0 ], [ -121.60300135420087, 38.441099951869106, 0.0 ], [ -121.605862880381522, 38.434970552395512, 0.0 ], [ -121.608078187882953, 38.430109015539124, 0.0 ], [ -121.609185041006455, 38.4277139846618, 0.0 ], [ -121.609999514702665, 38.42712756680104, 0.0 ], [ -121.612134353924702, 38.425650743659013, 0.0 ], [ -121.612615451652601, 38.425060357781959, 0.0 ], [ -121.61443187283021, 38.421207306877129, 0.0 ], [ -121.614775988028768, 38.419852303814096, 0.0 ], [ -121.614712303265307, 38.419219701696953, 0.0 ], [ -121.614461916225281, 38.418048416134404, 0.0 ], [ -121.614097627644455, 38.416494288743799, 0.0 ], [ -121.614213466550922, 38.415983026118795, 0.0 ], [ -121.618573576736011, 38.406640206576853, 0.0 ], [ -121.621163314523201, 38.401115184371946, 0.0 ], [ -121.624716477756806, 38.393491258198765, 0.0 ], [ -121.627843563635949, 38.386732510935055, 0.0 ], [ -121.628840363678393, 38.384479041089214, 0.0 ], [ -121.630593382443479, 38.380672646560669, 0.0 ], [ -121.631381487624836, 38.379036645971851, 0.0 ], [ -121.632691887440217, 38.3762026326796, 0.0 ], [ -121.634742466038603, 38.371851235977026, 0.0 ], [ -121.635264712379126, 38.370653215574713, 0.0 ], [ -121.636495748144185, 38.367997056912806, 0.0 ], [ -121.637442566985754, 38.365957514656245, 0.0 ], [ -121.639132100473503, 38.362257533199241, 0.0 ], [ -121.63988930369085, 38.360633030876464, 0.0 ], [ -121.642474575462415, 38.355167031086914, 0.0 ], [ -121.643182541532084, 38.35339096807872, 0.0 ], [ -121.644981991652102, 38.349795441755688, 0.0 ], [ -121.645368311901294, 38.347749346971433, 0.0 ], [ -121.645685894400671, 38.346954251399943, 0.0 ], [ -121.647955347302087, 38.342140166754767, 0.0 ], [ -121.649142664691027, 38.339340289737017, 0.0 ], [ -121.649763855850395, 38.337678381677463, 0.0 ], [ -121.650607394652383, 38.334636089850555, 0.0 ], [ -121.651251932543104, 38.331710720120718, 0.0 ], [ -121.652022104397659, 38.328536429461671, 0.0 ], [ -121.65291069738538, 38.3246839432488, 0.0 ], [ -121.653922433744484, 38.320713641622717, 0.0 ], [ -121.655204743666204, 38.315196580168433, 0.0 ], [ -121.655859408926787, 38.312521650230174, 0.0 ], [ -121.656792521276216, 38.308693475955181, 0.0 ], [ -121.657418347570129, 38.305934749745084, 0.0 ] ] } },
{ "type": "Feature", "properties": { "OBJECTID": 0.0, "ComID": 0.0, "Permanent_": null, "FDate": "1899-12-30", "Resolution": 0.0, "GNIS_ID": null, "GNIS_Name": null, "LengthKM": 0.0, "ReachCode": null, "FlowDir": 0.0, "WBAreaComI": 0.0, "WBArea_Per": null, "FType": 0.0, "FCode": 0.0, "Shape_Leng": 0.0, "Enabled": 0 }, "geometry": { "type": "LineString", "coordinates": [ [ -121.657418347570101, 38.305934749745084, 0.0 ], [ -121.657927037688765, 38.303782698119846, 0.0 ], [ -121.65881344214759, 38.300013576179367, 0.0 ], [ -121.65974622013502, 38.296185364635377, 0.0 ], [ -121.660977851764486, 38.290906072710683, 0.0 ], [ -121.661314720996543, 38.289860783028999, 0.0 ], [ -121.66214714623257, 38.289011896980298, 0.0 ], [ -121.662687399869057, 38.288421957993798, 0.0 ], [ -121.663091503145509, 38.287007847220707, 0.0 ], [ -121.663564605335594, 38.285129562831202, 0.0 ], [ -121.663948305001583, 38.284001343677097, 0.0 ], [ -121.66428658825933, 38.282595207244448, 0.0 ], [ -121.665253521591239, 38.279113273916515, 0.0 ], [ -121.665245588257875, 38.276784673920105, 0.0 ], [ -121.665487188257543, 38.274645207256761, 0.0 ], [ -121.665774388257091, 38.273717007258213, 0.0 ], [ -121.666792321588829, 38.272123007260625, 0.0 ], [ -121.667905449994748, 38.270716673551156, 0.0 ], [ -121.668705521585892, 38.269480273931478, 0.0 ], [ -121.670623788249543, 38.266098873936706, 0.0 ], [ -121.670159521583571, 38.263798273940296, 0.0 ], [ -121.670118988250323, 38.261163273944305, 0.0 ], [ -121.671280188248545, 38.258561807281701, 0.0 ], [ -121.671568588248064, 38.256629007284722, 0.0 ], [ -121.671477334141542, 38.2558172211737, 0.0 ], [ -121.671279921581856, 38.254061007288691, 0.0 ], [ -121.671937721580818, 38.251992673958576, 0.0 ], [ -121.673952521577704, 38.250458607294256, 0.0 ], [ -121.675543521575264, 38.247758207298496, 0.0 ], [ -121.677421388239011, 38.246263607300811, 0.0 ], [ -121.677711321571863, 38.244021407304295, 0.0 ], [ -121.678473788237326, 38.243187873972268, 0.0 ], [ -121.680330521567839, 38.242499007306662, 0.0 ], [ -121.680910788233575, 38.242260873973713, 0.0 ], [ -121.681380988232846, 38.241845207307712, 0.0 ], [ -121.685826225202575, 38.240440626202648, 0.0 ], [ -121.684044988228692, 38.238197873979992, 0.0 ], [ -121.683402788229714, 38.236310073982928, 0.0 ], [ -121.676722321573436, 38.233800407320167, 0.0 ], [ -121.675341698706703, 38.231327732279773, 0.0 ], [ -121.674623521576635, 38.228692473994741, 0.0 ], [ -121.673818721577902, 38.223319474003091, 0.0 ], [ -121.673146921578962, 38.221649074005676, 0.0 ], [ -121.672505188246618, 38.220455874007534, 0.0 ], [ -121.671637388247959, 38.218299607344186, 0.0 ], [ -121.669253188251645, 38.215033074015942, 0.0 ], [ -121.668375567650259, 38.214289711251013, 0.0 ], [ -121.662108988262787, 38.208989407358693, 0.0 ], [ -121.65966518826653, 38.207198874028144, 0.0 ], [ -121.658895921601086, 38.206049407363203, 0.0 ], [ -121.657490721603267, 38.203218674034268, 0.0 ], [ -121.657043388270594, 38.199725407373037, 0.0 ], [ -121.657345588270147, 38.195202807380049, 0.0 ], [ -121.658103588269, 38.191723207385479, 0.0 ], [ -121.66048818826529, 38.187398807392185, 0.0 ], [ -121.662530788262103, 38.183272607398592, 0.0 ], [ -121.664648321592168, 38.180825207402428, 0.0 ], [ -121.667175921588253, 38.177678874073912, 0.0 ], [ -121.670752726909441, 38.173591605169293, 0.0 ], [ -121.674321788243788, 38.169512607419911, 0.0 ], [ -121.676886960806755, 38.165651581225518, 0.0 ], [ -121.67963312156887, 38.161517607432366, 0.0 ], [ -121.68291445524109, 38.158143278462155, 0.0 ] ] } }
]
}
